#cP2022  2 28 18  0  0.00000000     576 d+D   IGb14 EXT AIUB
## 2199 151200.00000000   300.00000000 59638 0.7500000000000
+   76   G02G03G05G06G07G08G09G10G11G12G13G14G15G16G17G18G19
+        G20G21G22G23G24G25G26G27G28G29G30G31G32R01R02R03R04
+        R05R07R08R09R11R12R13R14R15R17R18R19R20R21R22R24E01
+        E02E03E04E05E07E08E09E10E11E12E13E14E15E18E19E21E24
+        E25E26E27E30E31E33E34E36  0  0  0  0  0  0  0  0  0
++         7  5  7  6  7  6  6  6  8  7  7  7  7  7  7  8  7
++         7  7  6  7  7  6  6  6  7  7  7  7  6  9  7  8  8
++         8  8  8  7  6  7  7  7  7  8  7  8  9  8  8  8  6
++         6  5  6  6  6  6  7  8  7  6  7  6  7  6  7  5  5
++         6  7  6  6  6  7  6  7  0  0  0  0  0  0  0  0  0
%c M  cc GPS ccc cccc cccc cccc cccc ccccc ccccc ccccc ccccc
%c cc cc ccc ccc cccc cccc cccc cccc ccccc ccccc ccccc ccccc
%f  1.2500000  1.025000000  0.00000000000  0.000000000000000
%f  0.0000000  0.000000000  0.00000000000  0.000000000000000
%i    0    0    0    0      0      0      0      0         0
%i    0    0    0    0      0      0      0      0         0
/* Center for Orbit Determination in Europe (CODE)          
/* Ultra-rapid GRE orbits starting year-day 22059 18 hour   
/* Observed/predicted: 24/24 hours (data used up to 060R)   
/* PCV:IGS14      OL/AL:FES2014b NONE     YN ORB:CoN CLK:BRD
*  2022  3  1  8 25  0.00000000
PG02  15009.835728    296.838789 -21262.787477   -651.654243
PG03 -19802.345615  13001.518654 -12002.660329   -143.357101
PG05  26023.410181  -4712.231463  -3385.290833    -73.109049
PG06   7621.749308  17190.461411 -18656.238442    216.782055
PG07  -4391.829126  25557.210604   4722.407037    313.482569
PG08 -17630.845142   1641.972381  19876.826249    -58.071111
PG09    916.312032  19403.429452 -18167.292306   -352.002746
PG10  -9032.057104 -12961.233044  21537.897901   -333.925316
PG11  15165.033509   2503.668012 -21664.180935    -74.627487
PG12  22500.349474 -10308.320336  -9720.515313   -178.204994
PG13  19327.597069   7681.012384  16461.061930    269.521094
PG14   7607.090259  13941.816064  21291.142409    -89.283187
PG15  17344.672096  -4314.141513  19334.257727    -80.185234
PG16 -25951.518211  -1147.553636  -6880.228724   -475.399669
PG17  12570.699647  22459.768931   6882.830871    581.422578
PG18   5151.261580 -25619.330388   4427.827997    229.817303
PG19  16982.732622  20494.039449  -1830.009737    125.204731
PG20  23240.592452    531.001293 -12619.488750    516.491601
PG21 -15866.704154  10566.266169  18887.497544    158.782039
PG22 -18297.117015 -18949.271314  -3704.714630    220.769400
PG23   3848.541443 -15895.161098  20898.382355     -2.977898
PG24  14343.365273 -16915.086673  14012.336466    271.588662
PG25  11199.288758 -15886.561914 -18259.608167    292.210302
PG26 -19418.613038  -7256.923612 -16857.548054    187.205735
PG27 -21147.521637  -9566.719996  13067.521121    138.236276
PG28  15633.163886  10965.592701  18883.291708    390.131787
PG29   2319.031914 -17900.793295 -19512.148730   -486.037064
PG30   1835.208915  23438.932354  12183.810180   -516.213923
PG31  -9801.004298 -14821.541117 -19719.257438   -166.925366
PG32 -16622.237624 -20638.246556   3079.203422    -76.391597
PR01  23745.598169   9201.092472  -1577.054247      7.145107
PR02  19020.625237  -1188.072654  16965.159708    511.134847
PR03   3215.641895 -10483.736527  23078.091606     52.341124
PR04 -14116.323305 -13613.716238  16348.041062    129.900896
PR05 -23695.917132  -9463.166046    569.894500     88.585816
PR07  -2552.709991  10683.034415 -22979.587142     32.163923
PR08  14250.621014  13607.036174 -16125.202185    -63.775577
PR09 -20605.035175  13915.016988  -5521.823352     42.026116
PR11   1126.813054  12735.043012  22076.257496     44.629118
PR12  16014.328447   -915.813176  19843.480991     17.305082
PR13  20709.189309 -13299.342925   6669.826692    -18.887710
PR14  13254.251532 -18389.693625 -11702.890731     74.890613
PR15  -1733.327172 -12384.608861 -22218.870203     97.869026
PR17   1793.785291 -22590.161370 -11669.707838    505.823286
PR18  -5937.840007 -24330.522549   5019.524430    108.865199
PR19 -10030.501306 -14509.347576  18430.538604   -179.926092
PR20  -9252.375803   7126.870462  22680.693497    -65.844820
PR21  -1171.178437  23274.182627  10398.425047   -281.785082
PR22   6132.807753  23983.513956  -5936.357522   -167.755006
PR24   9332.540847  -8188.419112 -22262.619194     82.362677
PE01 -22141.211740  -5449.367710 -18885.933762   -588.272647
PE02  22224.914309   5344.364544  18785.171151    283.369716
PE03  24587.642342  15790.958852   4749.317294   -532.754155
PE04 -21845.318924    311.996050 -19966.578118   -974.986834
PE05  12919.227532  22920.183421 -13556.984458   -204.546183
PE07   6106.921624 -16617.483016  23727.919587   -643.880756
PE08  21563.358067   -668.942897  20272.868634   -487.695984
PE09  -5713.122401  16680.760311 -23773.533211   5343.787362
PE10 -14099.958529  19742.742951  16954.391947   -497.994891
PE11  -9547.980303  26813.016938   8086.412983   4339.664492
PE12 -16422.148178   9788.754104  22594.140200   4735.612259
PE13   9806.968054 -26534.792731  -8726.253759    426.929294
PE14 -16447.012721 -18799.065318    804.398887  -1762.592190
PE15  16334.978208  -9715.934201 -22685.716851    760.440960
PE18  25270.112647  14360.741556 -12963.090349  -1736.260132
PE19 -23838.782986 -17383.754660  -2424.244003   -577.023903
PE21  -4453.078423 -16087.445977 -24450.022916   -719.955853
PE24 -18046.332347  17815.697917  15275.443715  -1416.748324
PE25   4140.134191  16191.081558  24431.241674   -565.262447
PE26  -3069.363121 -27263.217284  11124.748271   -861.007698
PE27  16801.458571 -18131.066037 -16273.111008   -243.135174
PE30  28181.384177  -8678.805781   2426.691470   -312.769466
PE31 -28007.537274   9493.643756  -1412.881868   -492.880727
PE33 -13204.017074 -12781.140561  23216.065658   -458.981849
PE34  13310.076267  12526.349666 -23284.290583   -504.388130
PE36   2430.522507  27650.869019 -10254.380780   -339.055341
EOF
